XRISM                   
1 57800U 23137A   24254.10391780  .00014722  00000+0  10711-2 0  9999
2 57800  31.0022 191.5841 0009662 326.2656  33.7364 15.02622572 55460
